{"type": "FeatureCollection", "features": [ {"type": "Feature", "properties": {"norad_id": 36232, "name": "FENGYUN 1C DEB", "group": "fengyun-1c-debris", "lat": -74.06436215692715, "lon": 112.71033312730934, "alt_km": 930.9707401534915, "timestamp": "2025-12-06T22:38:43.016299+00:00", "meta": {"OBJECT_NAME": "FENGYUN 1C DEB", "OBJECT_ID": "1999-025DVH", "EPOCH": "2025-12-05T16:32:02.871168", "MEAN_MOTION": 14.12487298, "ECCENTRICITY": 0.01193739, "INCLINATION": 98.7027, "RA_OF_ASC_NODE": 323.9324, "ARG_OF_PERICENTER": 48.0376, "MEAN_ANOMALY": 313.0894, "EPHEMERIS_TYPE": 0, "CLASSIFICATION_TYPE": "U", "NORAD_CAT_ID": 36232, "ELEMENT_SET_NO": 999, "REV_AT_EPOCH": 61636, "BSTAR": 0.00057224043, "MEAN_MOTION_DOT": 1.089e-05, "MEAN_MOTION_DDOT": 0}, "tle": {"line1": "1 36232U 99025DVH 25339.68892212  .00001089  00000+0  57224-3 0  9991", "line2": "2 36232  98.7027 323.9324 0119373  48.0376 313.0894 14.12487298616365"}}, "geometry": {"type": "Point", "coordinates": [112.71033312730934, -74.06436215692715]}}, {"type": "Feature", "properties": {"norad_id": 36234, "name": "FENGYUN 1C DEB", "group": "fengyun-1c-debris", "lat": -39.159532853808855, "lon": 58.76047929033589, "alt_km": 1056.6020428114061, "timestamp": "2025-12-06T22:38:43.016309+00:00", "meta": {"OBJECT_NAME": "FENGYUN 1C DEB", "OBJECT_ID": "1999-025DVK", "EPOCH": "2025-12-03T10:58:09.682464", "MEAN_MOTION": 13.45652175, "ECCENTRICITY": 0.03179973, "INCLINATION": 99.0038, "RA_OF_ASC_NODE": 48.2074, "ARG_OF_PERICENTER": 51.7267, "MEAN_ANOMALY": 311.2025, "EPHEMERIS_TYPE": 0, "CLASSIFICATION_TYPE": "U", "NORAD_CAT_ID": 36234, "ELEMENT_SET_NO": 999, "REV_AT_EPOCH": 87822, "BSTAR": 0.00044117978, "MEAN_MOTION_DOT": 3.19e-06, "MEAN_MOTION_DDOT": 0}, "tle": {"line1": "1 36234U 99025DVK 25337.45705651  .00000319  00000+0  44118-3 0  9999", "line2": "2 36234  99.0038  48.2074 0317997  51.7267 311.2025 13.45652175878228"}}, "geometry": {"type": "Point", "coordinates": [58.76047929033589, -39.159532853808855]}}, {"type": "Feature", "properties": {"norad_id": 36236, "name": "FENGYUN 1C DEB", "group": "fengyun-1c-debris", "lat": 53.38273720304121, "lon": 9.592520836195504, "alt_km": 867.6658790521351, "timestamp": "2025-12-06T22:38:43.016319+00:00", "meta": {"OBJECT_NAME": "FENGYUN 1C DEB", "OBJECT_ID": "1999-025DVM", "EPOCH": "2025-12-05T08:09:49.046400", "MEAN_MOTION": 13.81948459, "ECCENTRICITY": 0.01498133, "INCLINATION": 98.8508, "RA_OF_ASC_NODE": 20.19, "ARG_OF_PERICENTER": 18.1791, "MEAN_ANOMALY": 342.4641, "EPHEMERIS_TYPE": 0, "CLASSIFICATION_TYPE": "U", "NORAD_CAT_ID": 36236, "ELEMENT_SET_NO": 999, "REV_AT_EPOCH": 59645, "BSTAR": 0.0004784267, "MEAN_MOTION_DOT": 5.19e-06, "MEAN_MOTION_DDOT": 0}, "tle": {"line1": "1 36236U 99025DVM 25339.34015100  .00000519  00000+0  47843-3 0  9994", "line2": "2 36236  98.8508  20.1900 0149813  18.1791 342.4641 13.81948459596450"}}, "geometry": {"type": "Point", "coordinates": [9.592520836195504, 53.38273720304121]}}, {"type": "Feature", "properties": {"norad_id": 36238, "name": "FENGYUN 1C DEB", "group": "fengyun-1c-debris", "lat": -77.70827525155129, "lon": -2.095194459149632, "alt_km": 844.764140357549, "timestamp": "2025-12-06T22:38:43.016329+00:00", "meta": {"OBJECT_NAME": "FENGYUN 1C DEB", "OBJECT_ID": "1999-025DVP", "EPOCH": "2025-12-02T15:18:56.487456", "MEAN_MOTION": 14.12385356, "ECCENTRICITY": 0.00203802, "INCLINATION": 98.6457, "RA_OF_ASC_NODE": 309.4608, "ARG_OF_PERICENTER": 311.9988, "MEAN_ANOMALY": 47.9448, "EPHEMERIS_TYPE": 0, "CLASSIFICATION_TYPE": "U", "NORAD_CAT_ID": 36238, "ELEMENT_SET_NO": 999, "REV_AT_EPOCH": 86875, "BSTAR": 0.00011760709, "MEAN_MOTION_DOT": 1.75e-06, "MEAN_MOTION_DDOT": 0}, "tle": {"line1": "1 36238U 99025DVP 25336.63815379  .00000175  00000+0  11761-3 0  9999", "line2": "2 36238  98.6457 309.4608 0020380 311.9988  47.9448 14.12385356868753"}}, "geometry": {"type": "Point", "coordinates": [-2.095194459149632, -77.70827525155129]}}, {"type": "Feature", "properties": {"norad_id": 36244, "name": "FENGYUN 1C DEB", "group": "fengyun-1c-debris", "lat": -77.16975865853904, "lon": 135.10082621006245, "alt_km": 784.0156193360017, "timestamp": "2025-12-06T22:38:43.016339+00:00", "meta": {"OBJECT_NAME": "FENGYUN 1C DEB", "OBJECT_ID": "1999-025DVV", "EPOCH": "2025-12-01T06:30:33.359616", "MEAN_MOTION": 14.24827854, "ECCENTRICITY": 0.00483696, "INCLINATION": 98.9263, "RA_OF_ASC_NODE": 85.6985, "ARG_OF_PERICENTER": 317.9202, "MEAN_ANOMALY": 41.8266, "EPHEMERIS_TYPE": 0, "CLASSIFICATION_TYPE": "U", "NORAD_CAT_ID": 36244, "ELEMENT_SET_NO": 999, "REV_AT_EPOCH": 91815, "BSTAR": 0.0019641891, "MEAN_MOTION_DOT": 4.594e-05, "MEAN_MOTION_DDOT": 0}, "tle": {"line1": "1 36244U 99025DVV 25335.27121944  .00004594  00000+0  19642-2 0  9997", "line2": "2 36244  98.9263  85.6985 0048369 317.9202  41.8266 14.24827854918159"}}, "geometry": {"type": "Point", "coordinates": [135.10082621006245, -77.16975865853904]}}, {"type": "Feature", "properties": {"norad_id": 36247, "name": "FENGYUN 1C DEB", "group": "fengyun-1c-debris", "lat": 48.46134652837416, "lon": -15.174469554969503, "alt_km": 641.1446697966048, "timestamp": "2025-12-06T22:38:43.016349+00:00", "meta": {"OBJECT_NAME": "FENGYUN 1C DEB", "OBJECT_ID": "1999-025DVY", "EPOCH": "2025-12-01T11:45:50.986944", "MEAN_MOTION": 14.33529137, "ECCENTRICITY": 0.01878056, "INCLINATION": 98.2683, "RA_OF_ASC_NODE": 349.0587, "ARG_OF_PERICENTER": 67.2123, "MEAN_ANOMALY": 294.8783, "EPHEMERIS_TYPE": 0, "CLASSIFICATION_TYPE": "U", "NORAD_CAT_ID": 36247, "ELEMENT_SET_NO": 999, "REV_AT_EPOCH": 70101, "BSTAR": 0.00050385684, "MEAN_MOTION_DOT": 1.653e-05, "MEAN_MOTION_DDOT": 0}, "tle": {"line1": "1 36247U 99025DVY 25335.49017346  .00001653  00000+0  50386-3 0  9998", "line2": "2 36247  98.2683 349.0587 0187805  67.2123 294.8783 14.33529137701014"}}, "geometry": {"type": "Point", "coordinates": [-15.174469554969503, 48.46134652837416]}}, {"type": "Feature", "properties": {"norad_id": 36254, "name": "FENGYUN 1C DEB", "group": "fengyun-1c-debris", "lat": 28.75558749751465, "lon": 118.8677171258851, "alt_km": 514.6947243133418, "timestamp": "2025-12-06T22:38:43.016359+00:00", "meta": {"OBJECT_NAME": "FENGYUN 1C DEB", "OBJECT_ID": "1999-025DWF", "EPOCH": "2025-12-05T14:18:33.750144", "MEAN_MOTION": 15.16014702, "ECCENTRICITY": 0.00460473, "INCLINATION": 99.5277, "RA_OF_ASC_NODE": 291.891, "ARG_OF_PERICENTER": 66.6494, "MEAN_ANOMALY": 293.9567, "EPHEMERIS_TYPE": 0, "CLASSIFICATION_TYPE": "U", "NORAD_CAT_ID": 36254, "ELEMENT_SET_NO": 999, "REV_AT_EPOCH": 60668, "BSTAR": 0.0055743559, "MEAN_MOTION_DOT": 0.00111504, "MEAN_MOTION_DDOT": 0}, "tle": {"line1": "1 36254U 99025DWF 25339.59622396  .00111504  00000+0  55744-2 0  9997", "line2": "2 36254  99.5277 291.8910 0046047  66.6494 293.9567 15.16014702606681"}}, "geometry": {"type": "Point", "coordinates": [118.8677171258851, 28.75558749751465]}}, {"type": "Feature", "properties": {"norad_id": 36255, "name": "FENGYUN 1C DEB", "group": "fengyun-1c-debris", "lat": 57.70763390905677, "lon": 96.29904690229142, "alt_km": 741.0273411352837, "timestamp": "2025-12-06T22:38:43.016369+00:00", "meta": {"OBJECT_NAME": "FENGYUN 1C DEB", "OBJECT_ID": "1999-025DWG", "EPOCH": "2025-12-06T14:17:51.179136", "MEAN_MOTION": 14.36529712, "ECCENTRICITY": 0.0063603, "INCLINATION": 99.4343, "RA_OF_ASC_NODE": 260.6647, "ARG_OF_PERICENTER": 181.4041, "MEAN_ANOMALY": 302.4314, "EPHEMERIS_TYPE": 0, "CLASSIFICATION_TYPE": "U", "NORAD_CAT_ID": 36255, "ELEMENT_SET_NO": 999, "REV_AT_EPOCH": 63922, "BSTAR": 0.0013800054, "MEAN_MOTION_DOT": 4.098e-05, "MEAN_MOTION_DDOT": 0}, "tle": {"line1": "1 36255U 99025DWG 25340.59573124  .00004098  00000+0  13800-2 0  9990", "line2": "2 36255  99.4343 260.6647 0063603 181.4041 302.4314 14.36529712639222"}}, "geometry": {"type": "Point", "coordinates": [96.29904690229142, 57.70763390905677]}}, {"type": "Feature", "properties": {"norad_id": 36258, "name": "FENGYUN 1C DEB", "group": "fengyun-1c-debris", "lat": 13.293608974670576, "lon": -168.11312296940227, "alt_km": 534.2003808399304, "timestamp": "2025-12-06T22:38:43.016379+00:00", "meta": {"OBJECT_NAME": "FENGYUN 1C DEB", "OBJECT_ID": "1999-025DWK", "EPOCH": "2025-12-05T08:27:01.904832", "MEAN_MOTION": 14.74791778, "ECCENTRICITY": 0.01734753, "INCLINATION": 99.0874, "RA_OF_ASC_NODE": 7.9344, "ARG_OF_PERICENTER": 148.5807, "MEAN_ANOMALY": 212.5903, "EPHEMERIS_TYPE": 0, "CLASSIFICATION_TYPE": "U", "NORAD_CAT_ID": 36258, "ELEMENT_SET_NO": 999, "REV_AT_EPOCH": 90713, "BSTAR": 0.00056754799, "MEAN_MOTION_DOT": 4.777e-05, "MEAN_MOTION_DDOT": 0}, "tle": {"line1": "1 36258U 99025DWK 25339.35210538  .00004777  00000+0  56755-3 0  9993", "line2": "2 36258  99.0874   7.9344 0173475 148.5807 212.5903 14.74791778907137"}}, "geometry": {"type": "Point", "coordinates": [-168.11312296940227, 13.293608974670576]}}, {"type": "Feature", "properties": {"norad_id": 36260, "name": "FENGYUN 1C DEB", "group": "fengyun-1c-debris", "lat": 62.2083954713643, "lon": -179.9017326420136, "alt_km": 844.4448387504226, "timestamp": "2025-12-06T22:38:43.016389+00:00", "meta": {"OBJECT_NAME": "FENGYUN 1C DEB", "OBJECT_ID": "1999-025DWM", "EPOCH": "2025-12-03T17:44:50.798112", "MEAN_MOTION": 14.15362568, "ECCENTRICITY": 0.0014917, "INCLINATION": 98.6608, "RA_OF_ASC_NODE": 340.1773, "ARG_OF_PERICENTER": 277.2029, "MEAN_ANOMALY": 82.7449, "EPHEMERIS_TYPE": 0, "CLASSIFICATION_TYPE": "U", "NORAD_CAT_ID": 36260, "ELEMENT_SET_NO": 999, "REV_AT_EPOCH": 87681, "BSTAR": 0.00025923312, "MEAN_MOTION_DOT": 4.63e-06, "MEAN_MOTION_DDOT": 0}, "tle": {"line1": "1 36260U 99025DWM 25337.73947683  .00000463  00000+0  25923-3 0  9995", "line2": "2 36260  98.6608 340.1773 0014917 277.2029  82.7449 14.15362568876817"}}, "geometry": {"type": "Point", "coordinates": [-179.9017326420136, 62.2083954713643]}}]}